STARLINK-35781          
1 67110U 25299J   26005.50002314 -.00045715  00000+0 -77788-3 0  9993
2 67110  42.9998 172.9640 0001560 266.4338 326.2746 15.50581939  4573
STARLINK-35875          
1 67111U 25299K   26005.50002314 -.00110274  00000+0 -18978-2 0  9992
2 67111  42.9995 172.9701 0001439 266.1478 324.6319 15.50616999  4513
STARLINK-35906          
1 67112U 25299L   26005.50002314 -.00047220  00000+0 -80377-3 0  9996
2 67112  42.9997 172.9592 0001425 272.7879 321.8335 15.50584509  4515
STARLINK-35789          
1 67113U 25299M   26005.50002314 -.00095657  00000+0 -16429-2 0  9990
2 67113  42.9997 172.9546 0001280 267.5210 329.0108 15.50609851  4522
STARLINK-36180          
1 67114U 25299N   26005.50002314 -.00078303  00000+0 -13415-2 0  9992
2 67114  42.9997 172.9502 0001553 260.0500 338.4116 15.50594172  4621
STARLINK-35892          
1 67115U 25299P   26005.50002314 -.01988967  00000+0 -43653-1 0  9996
2 67115  42.9995 172.9615 0001019 268.4496 325.7311 15.46613175  4523
STARLINK-35738          
1 67116U 25299Q   26005.50002314 -.01791944  00000+0 -33949-1 0  9991
2 67116  42.9997 172.9402 0001144 253.6863 348.5509 15.50959733  4523
STARLINK-35674          
1 67117U 25299R   26005.50002314  .00049733  00000+0  11915-2 0  9991
2 67117  43.0001 173.0469 0001914 264.5075 294.0130 15.40662266  4423
STARLINK-35701          
1 67118U 25299S   26005.50002314 -.00083837  00000+0 -14376-2 0  9991
2 67118  42.9997 172.9312 0001423 266.4061 339.7262 15.50596785  4574
STARLINK-36179          
1 67119U 25299T   26005.50002314  .00060805  00000+0  14539-2 0  9991
2 67119  43.0003 173.0157 0001470 274.4727 296.5279 15.40644836  4628
STARLINK-36217          
1 67120U 25299U   26005.50002314 -.00063198  00000+0 -10797-2 0  9995
2 67120  42.9999 172.9256 0001471 261.2452 346.7979 15.50589465  4622
STARLINK-36124          
1 67121U 25299V   26005.50002314 -.00037931  00000+0 -64387-3 0  9997
2 67121  42.9999 172.9109 0001430 269.0091 344.7851 15.50578639  4628
