CCSDS_OMM_VERS = 2.0
CREATION_DATE  = 
ORIGINATOR     = 

OBJECT_NAME    = STARLINK-35781
OBJECT_ID      = 2025-299J
CENTER_NAME    = EARTH
REF_FRAME      = TEME
TIME_SYSTEM    = UTC
MEAN_ELEMENT_THEORY = SGP/SGP4

EPOCH          = 2026-01-05T12:00:01.999296
MEAN_MOTION    = 15.50581939
ECCENTRICITY   = .000156
INCLINATION    = 42.9998
RA_OF_ASC_NODE = 172.9640
ARG_OF_PERICENTER = 266.4338
MEAN_ANOMALY   = 326.2746

EPHEMERIS_TYPE = 0
CLASSIFICATION_TYPE = U
NORAD_CAT_ID   = 67110
ELEMENT_SET_NO = 999
REV_AT_EPOCH   = 457
BSTAR          = -.77788E-3
MEAN_MOTION_DOT = -.45715E-3
MEAN_MOTION_DDOT = 0

CCSDS_OMM_VERS = 2.0
CREATION_DATE  = 
ORIGINATOR     = 

OBJECT_NAME    = STARLINK-35875
OBJECT_ID      = 2025-299K
CENTER_NAME    = EARTH
REF_FRAME      = TEME
TIME_SYSTEM    = UTC
MEAN_ELEMENT_THEORY = SGP/SGP4

EPOCH          = 2026-01-05T12:00:01.999296
MEAN_MOTION    = 15.50616999
ECCENTRICITY   = .0001439
INCLINATION    = 42.9995
RA_OF_ASC_NODE = 172.9701
ARG_OF_PERICENTER = 266.1478
MEAN_ANOMALY   = 324.6319

EPHEMERIS_TYPE = 0
CLASSIFICATION_TYPE = U
NORAD_CAT_ID   = 67111
ELEMENT_SET_NO = 999
REV_AT_EPOCH   = 451
BSTAR          = -.18978E-2
MEAN_MOTION_DOT = -.110274E-2
MEAN_MOTION_DDOT = 0

CCSDS_OMM_VERS = 2.0
CREATION_DATE  = 
ORIGINATOR     = 

OBJECT_NAME    = STARLINK-35906
OBJECT_ID      = 2025-299L
CENTER_NAME    = EARTH
REF_FRAME      = TEME
TIME_SYSTEM    = UTC
MEAN_ELEMENT_THEORY = SGP/SGP4

EPOCH          = 2026-01-05T12:00:01.999296
MEAN_MOTION    = 15.50584509
ECCENTRICITY   = .0001425
INCLINATION    = 42.9997
RA_OF_ASC_NODE = 172.9592
ARG_OF_PERICENTER = 272.7879
MEAN_ANOMALY   = 321.8335

EPHEMERIS_TYPE = 0
CLASSIFICATION_TYPE = U
NORAD_CAT_ID   = 67112
ELEMENT_SET_NO = 999
REV_AT_EPOCH   = 451
BSTAR          = -.80377E-3
MEAN_MOTION_DOT = -.4722E-3
MEAN_MOTION_DDOT = 0

CCSDS_OMM_VERS = 2.0
CREATION_DATE  = 
ORIGINATOR     = 

OBJECT_NAME    = STARLINK-35789
OBJECT_ID      = 2025-299M
CENTER_NAME    = EARTH
REF_FRAME      = TEME
TIME_SYSTEM    = UTC
MEAN_ELEMENT_THEORY = SGP/SGP4

EPOCH          = 2026-01-05T12:00:01.999296
MEAN_MOTION    = 15.50609851
ECCENTRICITY   = .000128
INCLINATION    = 42.9997
RA_OF_ASC_NODE = 172.9546
ARG_OF_PERICENTER = 267.5210
MEAN_ANOMALY   = 329.0108

EPHEMERIS_TYPE = 0
CLASSIFICATION_TYPE = U
NORAD_CAT_ID   = 67113
ELEMENT_SET_NO = 999
REV_AT_EPOCH   = 452
BSTAR          = -.16429E-2
MEAN_MOTION_DOT = -.95657E-3
MEAN_MOTION_DDOT = 0

CCSDS_OMM_VERS = 2.0
CREATION_DATE  = 
ORIGINATOR     = 

OBJECT_NAME    = STARLINK-36180
OBJECT_ID      = 2025-299N
CENTER_NAME    = EARTH
REF_FRAME      = TEME
TIME_SYSTEM    = UTC
MEAN_ELEMENT_THEORY = SGP/SGP4

EPOCH          = 2026-01-05T12:00:01.999296
MEAN_MOTION    = 15.50594172
ECCENTRICITY   = .0001553
INCLINATION    = 42.9997
RA_OF_ASC_NODE = 172.9502
ARG_OF_PERICENTER = 260.0500
MEAN_ANOMALY   = 338.4116

EPHEMERIS_TYPE = 0
CLASSIFICATION_TYPE = U
NORAD_CAT_ID   = 67114
ELEMENT_SET_NO = 999
REV_AT_EPOCH   = 462
BSTAR          = -.13415E-2
MEAN_MOTION_DOT = -.78303E-3
MEAN_MOTION_DDOT = 0

CCSDS_OMM_VERS = 2.0
CREATION_DATE  = 
ORIGINATOR     = 

OBJECT_NAME    = STARLINK-35892
OBJECT_ID      = 2025-299P
CENTER_NAME    = EARTH
REF_FRAME      = TEME
TIME_SYSTEM    = UTC
MEAN_ELEMENT_THEORY = SGP/SGP4

EPOCH          = 2026-01-05T12:00:01.999296
MEAN_MOTION    = 15.46613175
ECCENTRICITY   = .0001019
INCLINATION    = 42.9995
RA_OF_ASC_NODE = 172.9615
ARG_OF_PERICENTER = 268.4496
MEAN_ANOMALY   = 325.7311

EPHEMERIS_TYPE = 0
CLASSIFICATION_TYPE = U
NORAD_CAT_ID   = 67115
ELEMENT_SET_NO = 999
REV_AT_EPOCH   = 452
BSTAR          = -.43653E-1
MEAN_MOTION_DOT = -.1988967E-1
MEAN_MOTION_DDOT = 0

CCSDS_OMM_VERS = 2.0
CREATION_DATE  = 
ORIGINATOR     = 

OBJECT_NAME    = STARLINK-35738
OBJECT_ID      = 2025-299Q
CENTER_NAME    = EARTH
REF_FRAME      = TEME
TIME_SYSTEM    = UTC
MEAN_ELEMENT_THEORY = SGP/SGP4

EPOCH          = 2026-01-05T12:00:01.999296
MEAN_MOTION    = 15.50959733
ECCENTRICITY   = .0001144
INCLINATION    = 42.9997
RA_OF_ASC_NODE = 172.9402
ARG_OF_PERICENTER = 253.6863
MEAN_ANOMALY   = 348.5509

EPHEMERIS_TYPE = 0
CLASSIFICATION_TYPE = U
NORAD_CAT_ID   = 67116
ELEMENT_SET_NO = 999
REV_AT_EPOCH   = 452
BSTAR          = -.33949E-1
MEAN_MOTION_DOT = -.1791944E-1
MEAN_MOTION_DDOT = 0

CCSDS_OMM_VERS = 2.0
CREATION_DATE  = 
ORIGINATOR     = 

OBJECT_NAME    = STARLINK-35674
OBJECT_ID      = 2025-299R
CENTER_NAME    = EARTH
REF_FRAME      = TEME
TIME_SYSTEM    = UTC
MEAN_ELEMENT_THEORY = SGP/SGP4

EPOCH          = 2026-01-05T12:00:01.999296
MEAN_MOTION    = 15.40662266
ECCENTRICITY   = .0001914
INCLINATION    = 43.0001
RA_OF_ASC_NODE = 173.0469
ARG_OF_PERICENTER = 264.5075
MEAN_ANOMALY   = 294.0130

EPHEMERIS_TYPE = 0
CLASSIFICATION_TYPE = U
NORAD_CAT_ID   = 67117
ELEMENT_SET_NO = 999
REV_AT_EPOCH   = 442
BSTAR          = .11915E-2
MEAN_MOTION_DOT = .49733E-3
MEAN_MOTION_DDOT = 0

CCSDS_OMM_VERS = 2.0
CREATION_DATE  = 
ORIGINATOR     = 

OBJECT_NAME    = STARLINK-35701
OBJECT_ID      = 2025-299S
CENTER_NAME    = EARTH
REF_FRAME      = TEME
TIME_SYSTEM    = UTC
MEAN_ELEMENT_THEORY = SGP/SGP4

EPOCH          = 2026-01-05T12:00:01.999296
MEAN_MOTION    = 15.50596785
ECCENTRICITY   = .0001423
INCLINATION    = 42.9997
RA_OF_ASC_NODE = 172.9312
ARG_OF_PERICENTER = 266.4061
MEAN_ANOMALY   = 339.7262

EPHEMERIS_TYPE = 0
CLASSIFICATION_TYPE = U
NORAD_CAT_ID   = 67118
ELEMENT_SET_NO = 999
REV_AT_EPOCH   = 457
BSTAR          = -.14376E-2
MEAN_MOTION_DOT = -.83837E-3
MEAN_MOTION_DDOT = 0

CCSDS_OMM_VERS = 2.0
CREATION_DATE  = 
ORIGINATOR     = 

OBJECT_NAME    = STARLINK-36179
OBJECT_ID      = 2025-299T
CENTER_NAME    = EARTH
REF_FRAME      = TEME
TIME_SYSTEM    = UTC
MEAN_ELEMENT_THEORY = SGP/SGP4

EPOCH          = 2026-01-05T12:00:01.999296
MEAN_MOTION    = 15.40644836
ECCENTRICITY   = .000147
INCLINATION    = 43.0003
RA_OF_ASC_NODE = 173.0157
ARG_OF_PERICENTER = 274.4727
MEAN_ANOMALY   = 296.5279

EPHEMERIS_TYPE = 0
CLASSIFICATION_TYPE = U
NORAD_CAT_ID   = 67119
ELEMENT_SET_NO = 999
REV_AT_EPOCH   = 462
BSTAR          = .14539E-2
MEAN_MOTION_DOT = .60805E-3
MEAN_MOTION_DDOT = 0

CCSDS_OMM_VERS = 2.0
CREATION_DATE  = 
ORIGINATOR     = 

OBJECT_NAME    = STARLINK-36217
OBJECT_ID      = 2025-299U
CENTER_NAME    = EARTH
REF_FRAME      = TEME
TIME_SYSTEM    = UTC
MEAN_ELEMENT_THEORY = SGP/SGP4

EPOCH          = 2026-01-05T12:00:01.999296
MEAN_MOTION    = 15.50589465
ECCENTRICITY   = .0001471
INCLINATION    = 42.9999
RA_OF_ASC_NODE = 172.9256
ARG_OF_PERICENTER = 261.2452
MEAN_ANOMALY   = 346.7979

EPHEMERIS_TYPE = 0
CLASSIFICATION_TYPE = U
NORAD_CAT_ID   = 67120
ELEMENT_SET_NO = 999
REV_AT_EPOCH   = 462
BSTAR          = -.10797E-2
MEAN_MOTION_DOT = -.63198E-3
MEAN_MOTION_DDOT = 0

CCSDS_OMM_VERS = 2.0
CREATION_DATE  = 
ORIGINATOR     = 

OBJECT_NAME    = STARLINK-36124
OBJECT_ID      = 2025-299V
CENTER_NAME    = EARTH
REF_FRAME      = TEME
TIME_SYSTEM    = UTC
MEAN_ELEMENT_THEORY = SGP/SGP4

EPOCH          = 2026-01-05T12:00:01.999296
MEAN_MOTION    = 15.50578639
ECCENTRICITY   = .000143
INCLINATION    = 42.9999
RA_OF_ASC_NODE = 172.9109
ARG_OF_PERICENTER = 269.0091
MEAN_ANOMALY   = 344.7851

EPHEMERIS_TYPE = 0
CLASSIFICATION_TYPE = U
NORAD_CAT_ID   = 67121
ELEMENT_SET_NO = 999
REV_AT_EPOCH   = 462
BSTAR          = -.64387E-3
MEAN_MOTION_DOT = -.37931E-3
MEAN_MOTION_DDOT = 0

